0 SL-14 R/B
1 18340U 87074G   13281.39052332  .00000040  00000-0  17949-3 0   240
2 18340 082.5659 120.7091 0040883 134.2365 277.5798 12.55537167195574
0 SL-14 R/B
1 18340U 87074G   13283.53673814  .00000057  00000-0  28347-3 0   255
2 18340 082.5657 119.3547 0040928 129.5465 258.2190 12.55537196195844
0 SL-14 R/B
1 18340U 87074G   13285.69249998  .00000036  00000-0  15733-3 0   269
2 18340 082.5655 117.9942 0040961 124.8298 282.0146 12.55537418196118
0 SL-14 R/B
1 18340U 87074G   13287.86285707  .00000014  00000-0  19571-4 0   270
2 18340 082.5654 116.6244 0040987 120.0906 011.7708 12.55537712196387
0 SL-14 R/B
1 18340U 87074G   13290.09543890 -.00000005  00000-0 -97477-4 0   283
2 18340 082.5657 115.2153 0041002 115.2124 022.7805 12.55537858196663
0 SL-14 R/B
1 18340U 87074G   13292.16688244  .00000001  00000-0 -60843-4 0   299
2 18340 082.5659 113.9079 0041022 110.7018 025.4506 12.55537714196929
0 SL-14 R/B
1 18340U 87074G   13294.53345700  .00000021  00000-0  62656-4 0   306
2 18340 082.5661 112.4142 0041026 105.5548 282.0692 12.55537481197223
